[{"OBJECT_NAME":"STARLINK-5895","OBJECT_ID":"2023-037BC","EPOCH":"2026-03-09T22:23:45.381696","MEAN_MOTION":15.07243555,"ECCENTRICITY":0.00049855,"INCLINATION":69.9972,"RA_OF_ASC_NODE":260.028,"ARG_OF_PERICENTER":264.4993,"MEAN_ANOMALY":95.5602,"EPHEMERIS_TYPE":0,"CLASSIFICATION_TYPE":"U","NORAD_CAT_ID":55964,"ELEMENT_SET_NO":999,"REV_AT_EPOCH":16460,"BSTAR":0.00072849946,"MEAN_MOTION_DOT":0.00010921,"MEAN_MOTION_DDOT":0},{"OBJECT_NAME":"STARLINK-35273","OBJECT_ID":"2025-218Q","EPOCH":"2026-03-09T12:44:58.460352","MEAN_MOTION":15.05645582,"ECCENTRICITY":0.00022559,"INCLINATION":97.6026,"RA_OF_ASC_NODE":292.7636,"ARG_OF_PERICENTER":78.5723,"MEAN_ANOMALY":281.5758,"EPHEMERIS_TYPE":0,"CLASSIFICATION_TYPE":"U","NORAD_CAT_ID":65805,"ELEMENT_SET_NO":999,"REV_AT_EPOCH":2494,"BSTAR":0.00038239935,"MEAN_MOTION_DOT":5.461e-5,"MEAN_MOTION_DDOT":0}]
